NORAD_CAT_ID,OBJECT_NAME,OBJECT_TYPE,EPOCH,MEAN_MOTION,ECCENTRICITY,INCLINATION,RA_OF_ASC_NODE,ARG_OF_PERICENTER,MEAN_ANOMALY,BSTAR,MEAN_MOTION_DOT,MEAN_MOTION_DDOT,TLE_LINE0,TLE_LINE1,TLE_LINE2,SEMIMAJOR_AXIS,PERIOD,APOGEE,PERIGEE,DECAYED
53866.0,STARLINK-4762,PAYLOAD,2024-04-15 07:36:16,15.08842805,0.0001504,53.2151,136.9952,86.6264,273.4901,0.00029711,4.444e-05,0.0,0 STARLINK-4762,1 53866U 22114BA  24106.31686325  .00004444  00000-0  29711-3 0  9994,2 53866  53.2151 136.9952 0001504  86.6264 273.4901 15.08842805 88715,6917.872,95.437,540.777,538.696,0.0
53866.0,STARLINK-4762,PAYLOAD,2024-04-15 18:43:58,15.08848144,0.0001554,53.2152,134.9145,83.0071,277.1098,0.00028357,4.229e-05,0.0,0 STARLINK-4762,1 53866U 22114BA  24106.78054087  .00004229  00000-0  28357-3 0  9995,2 53866  53.2152 134.9145 0001554  83.0071 277.1098 15.08848144 88787,6917.855,95.437,540.796,538.645,0.0
53866.0,STARLINK-4762,PAYLOAD,2024-04-16 05:51:40,15.08839246,0.000166,53.2165,132.8362,93.2881,266.8301,6.3273e-06,-1.87e-06,0.0,0 STARLINK-4762,1 53866U 22114BA  24107.24422360 -.00000187  00000-0  63273-5 0  9998,2 53866  53.2165 132.8362 0001660  93.2881 266.8301 15.08839246 88313,6917.883,95.438,540.896,538.599,0.0
53866.0,STARLINK-4762,PAYLOAD,2024-04-16 09:02:27,15.08842593,0.0001669,53.2165,132.2423,94.6008,265.5175,5.9608e-05,6.61e-06,0.0,0 STARLINK-4762,1 53866U 22114BA  24107.37670286  .00000661  00000-0  59608-4 0  9996,2 53866  53.2165 132.2423 0001669  94.6008 265.5175 15.08842593 88875,6917.872,95.437,540.892,538.583,0.0
53866.0,STARLINK-4762,PAYLOAD,2024-04-17 10:28:37,15.08834339,0.0001458,53.2148,127.4828,86.016,274.0999,3.6687e-06,-2.3e-06,0.0,0 STARLINK-4762,1 53866U 22114BA  24108.43654870 -.00000230  00000-0  36687-5 0  9991,2 53866  53.2148 127.4828 0001458  86.0160 274.0999 15.08834339 88497,6917.898,95.438,540.771,538.754,0.0
53866.0,STARLINK-4762,PAYLOAD,2024-04-18 07:08:39,15.0883196,0.0001554,53.2153,123.6162,78.9175,281.1991,1.4622e-05,-5.5e-07,0.0,0 STARLINK-4762,1 53866U 22114BA  24109.29767542 -.00000055  00000-0  14622-4 0  9996,2 53866  53.2153 123.6162 0001554  78.9175 281.1991 15.08831960 89168,6917.905,95.438,540.845,538.695,0.0
53866.0,STARLINK-4762,PAYLOAD,2024-04-19 05:24:02,15.08840108,0.0001459,53.2163,119.4524,86.8797,273.2362,0.00017566,2.509e-05,0.0,0 STARLINK-4762,1 53866U 22114BA  24110.22503111  .00002509  00000-0  17566-3 0  9995,2 53866  53.2163 119.4524 0001459  86.8797 273.2362 15.08840108 88769,6917.88,95.438,540.754,538.736,0.0
53866.0,STARLINK-4762,PAYLOAD,2024-04-19 06:59:25,15.08841471,0.0001493,53.2162,119.155,85.2067,274.9096,0.00019152,2.762e-05,0.0,0 STARLINK-4762,1 53866U 22114BA  24110.29127055  .00002762  00000-0  19152-3 0  9995,2 53866  53.2162 119.1550 0001493  85.2067 274.9096 15.08841471 89313,6917.876,95.437,540.774,538.708,0.0
53866.0,STARLINK-4762,PAYLOAD,2024-04-20 10:00:58,15.08860171,0.0001559,53.2159,114.0991,98.9856,261.1313,0.00034481,5.207e-05,0.0,0 STARLINK-4762,1 53866U 22114BA  24111.41733999  .00005207  00000-0  34481-3 0  9999,2 53866  53.2159 114.0991 0001559  98.9856 261.1313 15.08860171 88948,6917.819,95.436,540.762,538.605,0.0
53866.0,STARLINK-4762,PAYLOAD,2024-04-21 03:30:12,15.08841617,0.0002587,53.215,110.82,141.4831,218.6346,-0.00014355,-2.573e-05,0.0,0 STARLINK-4762,1 53866U 22114BA  24112.14598178 -.00002573  00000-0 -14355-3 0  9991,2 53866  53.2150 110.8200 0002587 141.4831 218.6346 15.08841617 89055,6917.875,95.437,541.53,537.951,0.0
53866.0,STARLINK-4762,PAYLOAD,2024-04-21 09:51:46,15.08827963,0.0001159,53.2153,109.6419,82.7449,277.3674,-0.00024004,-4.105e-05,0.0,0 STARLINK-4762,1 53866U 22114BA  24112.41095393 -.00004105  00000-0 -24004-3 0  9997,2 53866  53.2153 109.6419 0001159  82.7449 277.3674 15.08827963 89630,6917.917,95.438,540.584,538.98,0.0
53866.0,STARLINK-4762,PAYLOAD,2024-04-22 04:56:23,15.08849068,0.0001566,53.2161,106.071,101.3581,258.7587,0.00031536,4.736e-05,0.0,0 STARLINK-4762,1 53866U 22114BA  24113.20582900  .00004736  00000-0  31536-3 0  9996,2 53866  53.2161 106.0710 0001566 101.3581 258.7587 15.08849068 89211,6917.853,95.437,540.801,538.634,0.0
53866.0,STARLINK-4762,PAYLOAD,2024-04-23 04:47:11,15.08831533,0.0001158,53.2153,101.6142,89.2239,270.8886,1.8304e-05,3e-08,0.0,0 STARLINK-4762,1 53866U 22114BA  24114.19943589  .00000003  00000-0  18304-4 0  9991,2 53866  53.2153 101.6142 0001158  89.2239 270.8886 15.08831533 89364,6917.906,95.438,540.572,538.97,0.0
53866.0,STARLINK-4762,PAYLOAD,2024-04-23 06:22:34,15.08839254,0.0001114,53.215,101.3143,88.7452,271.3667,0.00022542,3.301e-05,0.0,0 STARLINK-4762,1 53866U 22114BA  24114.26567559  .00003301  00000-0  22542-3 0  9990,2 53866  53.2150 101.3143 0001114  88.7452 271.3667 15.08839254 89914,6917.883,95.438,540.518,538.977,0.0
53866.0,STARLINK-4762,PAYLOAD,2024-04-24 03:02:34,15.08839491,0.0001302,53.2157,97.4465,103.0512,257.0626,-5.9656e-05,-1.237e-05,0.0,0 STARLINK-4762,1 53866U 22114BA  24115.12679375 -.00001237  00000-0 -59656-4 0  9991,2 53866  53.2157  97.4465 0001302 103.0512 257.0626 15.08839491 89504,6917.882,95.438,540.648,538.846,0.0
53866.0,STARLINK-4762,PAYLOAD,2024-04-24 07:48:44,15.08847303,0.0001571,53.2157,96.556,117.3517,242.7635,-6.5283e-05,-1.327e-05,0.0,0 STARLINK-4762,1 53866U 22114BA  24115.32551126 -.00001327  00000-0 -65283-4 0  9999,2 53866  53.2157  96.5560 0001571 117.3517 242.7635 15.08847303 90077,6917.858,95.437,540.81,538.636,0.0
53866.0,STARLINK-4762,PAYLOAD,2024-04-24 22:07:12,15.08840483,0.000127,53.2152,93.8759,108.5746,251.5384,0.00022412,3.281e-05,0.0,0 STARLINK-4762,1 53866U 22114BA  24115.92167459  .00003281  00000-0  22412-3 0  9992,2 53866  53.2152  93.8759 0001270 108.5746 251.5384 15.08840483 90165,6917.879,95.438,540.622,538.865,0.0
53866.0,STARLINK-4762,PAYLOAD,2024-04-25 04:28:45,15.08837995,0.0001265,53.2155,92.6869,104.5515,255.5617,0.00016197,2.291e-05,0.0,0 STARLINK-4762,1 53866U 22114BA  24116.18663677  .00002291  00000-0  16197-3 0  9997,2 53866  53.2155  92.6869 0001265 104.5515 255.5617 15.08837995 89661,6917.887,95.438,540.627,538.876,0.0
53866.0,STARLINK-4762,PAYLOAD,2024-04-25 07:39:31,15.08842204,0.0001275,53.2157,92.0903,103.6108,256.5026,0.00021477,3.132e-05,0.0,0 STARLINK-4762,1 53866U 22114BA  24116.31911496  .00003132  00000-0  21477-3 0  9999,2 53866  53.2157  92.0903 0001275 103.6108 256.5026 15.08842204 90223,6917.874,95.437,540.621,538.857,0.0
53866.0,STARLINK-4762,PAYLOAD,2024-04-26 04:19:32,15.08841742,0.0001241,53.2164,88.2202,98.3351,261.7781,6.1548e-05,6.92e-06,0.0,0 STARLINK-4762,1 53866U 22114BA  24117.18023513  .00000692  00000-0  61548-4 0  9991,2 53866  53.2164  88.2202 0001241  98.3351 261.7781 15.08841742 90359,6917.875,95.437,540.599,538.882,0.0
53866.0,STARLINK-4762,PAYLOAD,2024-04-26 15:27:13,15.08846819,0.0001309,53.2169,86.1443,111.3532,248.76,0.00012793,1.749e-05,0.0,0 STARLINK-4762,1 53866U 22114BA  24117.64391193  .00001749  00000-0  12793-3 0  9995,2 53866  53.2169  86.1443 0001309 111.3532 248.7600 15.08846819 89881,6917.86,95.437,540.63,538.819,0.0
53866.0,STARLINK-4762,PAYLOAD,2024-04-27 07:21:05,15.08854198,0.0001554,53.2192,83.1705,97.1925,262.9244,0.0002646,3.927e-05,0.0,0 STARLINK-4762,1 53866U 22114BA  24118.30630808  .00003927  00000-0  26460-3 0  9994,2 53866  53.2192  83.1705 0001554  97.1925 262.9244 15.08854198 90528,6917.837,95.437,540.777,538.627,0.0
53866.0,STARLINK-4762,PAYLOAD,2024-04-27 15:18:00,15.08852822,0.000167,53.2187,81.6826,107.7156,252.4019,0.00019125,2.758e-05,0.0,0 STARLINK-4762,1 53866U 22114BA  24118.63750537  .00002758  00000-0  19125-3 0  9993,2 53866  53.2187  81.6826 0001670 107.7156 252.4019 15.08852822 90573,6917.841,95.437,540.861,538.551,0.0
53866.0,STARLINK-4762,PAYLOAD,2024-04-28 04:01:07,15.0882353,0.0001472,53.2176,79.3081,89.3266,270.7895,-0.00020061,-3.478e-05,0.0,0 STARLINK-4762,1 53866U 22114BA  24119.16744389 -.00003478  00000-0 -20061-3 0  9993,2 53866  53.2176  79.3081 0001472  89.3266 270.7895 15.08823530 90114,6917.931,95.439,540.814,538.777,0.0
53866.0,STARLINK-4762,PAYLOAD,2024-04-28 07:11:53,15.08824328,0.0001486,53.2176,78.7126,90.394,269.7223,-0.00017397,-3.054e-05,0.0,0 STARLINK-4762,1 53866U 22114BA  24119.29992444 -.00003054  00000-0 -17397-3 0  9992,2 53866  53.2176  78.7126 0001486  90.3940 269.7223 15.08824328 90673,6917.928,95.439,540.821,538.765,0.0
53866.0,STARLINK-4762,PAYLOAD,2024-04-28 21:30:21,15.08835693,0.0001559,53.2179,76.0372,87.8821,272.235,7.9747e-06,-1.61e-06,0.0,0 STARLINK-4762,1 53866U 22114BA  24119.89608149 -.00000161  00000-0  79747-5 0  9998,2 53866  53.2179  76.0372 0001559  87.8821 272.2350 15.08835693 90228,6917.894,95.438,540.837,538.68,0.0
53866.0,STARLINK-4762,PAYLOAD,2024-04-29 13:24:12,15.08849783,0.0001499,53.2172,73.0642,79.3756,280.7404,0.00071253,0.00011073,0.0,0 STARLINK-4762,1 53866U 22114BA  24120.55848250  .00011073  00000-0  71253-3 0  9997,2 53866  53.2172  73.0642 0001499  79.3756 280.7404 15.08849783 90863,6917.85,95.437,540.752,538.679,0.0
53866.0,STARLINK-4762,PAYLOAD,2024-04-29 21:21:08,15.08853927,0.0001969,53.2168,71.5792,86.3122,273.8095,0.00055038,8.485e-05,0.0,0 STARLINK-4762,1 53866U 22114BA  24120.88968202  .00008485  00000-0  55038-3 0  9999,2 53866  53.2168  71.5792 0001969  86.3122 273.8095 15.08853927 90374,6917.838,95.437,541.065,538.341,0.0
53866.0,STARLINK-4762,PAYLOAD,2024-04-30 03:42:40,15.08849681,0.0001437,53.2177,70.3912,94.687,265.4286,0.00035109,5.306e-05,0.0,0 STARLINK-4762,1 53866U 22114BA  24121.15464074  .00005306  00000-0  35109-3 0  9994,2 53866  53.2177  70.3912 0001437  94.6870 265.4286 15.08849681 90413,6917.851,95.437,540.71,538.722,0.0
53866.0,STARLINK-4762,PAYLOAD,2024-05-01 03:33:28,15.08838714,0.0001424,53.2181,65.9315,102.0506,258.0646,2.0666e-05,4.1e-07,0.0,0 STARLINK-4762,1 53866U 22114BA  24122.14824343  .00000041  00000-0  20666-4 0  9997,2 53866  53.2181  65.9315 0001424 102.0506 258.0646 15.08838714 90560,6917.884,95.438,540.734,538.764,0.0
